OBJECT B                
1 51825U 22019B   24174.86917475  .00010000  00000+0  43823-3 0  9993
2 51825  97.4290 246.1421 0013914 212.9713 147.0657 15.22112225128090
